[{"OBJECT_NAME":"OPS 7218 (TRANSIT 16)","OBJECT_ID":"1967-048A","EPOCH":"2026-03-04T09:32:36.945312","MEAN_MOTION":13.50742736,"ECCENTRICITY":0.00183316,"INCLINATION":89.6811,"RA_OF_ASC_NODE":351.3379,"ARG_OF_PERICENTER":237.9872,"MEAN_ANOMALY":245.7982,"EPHEMERIS_TYPE":0,"CLASSIFICATION_TYPE":"U","NORAD_CAT_ID":2807,"ELEMENT_SET_NO":999,"REV_AT_EPOCH":89378,"BSTAR":0.00022807668,"MEAN_MOTION_DOT":1.57e-6,"MEAN_MOTION_DDOT":0},{"OBJECT_NAME":"OPS 4947 (TRANSIT 17)","OBJECT_ID":"1967-092A","EPOCH":"2026-03-04T10:36:04.778208","MEAN_MOTION":13.5347647,"ECCENTRICITY":0.00479129,"INCLINATION":89.2557,"RA_OF_ASC_NODE":18.2109,"ARG_OF_PERICENTER":1.2291,"MEAN_ANOMALY":123.9872,"EPHEMERIS_TYPE":0,"CLASSIFICATION_TYPE":"U","NORAD_CAT_ID":2965,"ELEMENT_SET_NO":999,"REV_AT_EPOCH":88202,"BSTAR":0.00025963572,"MEAN_MOTION_DOT":1.87e-6,"MEAN_MOTION_DDOT":0},{"OBJECT_NAME":"OPS 7034 (TRANSIT 18)","OBJECT_ID":"1968-012A","EPOCH":"2026-03-04T12:16:25.704768","MEAN_MOTION":13.51588015,"ECCENTRICITY":0.0072194,"INCLINATION":90.0216,"RA_OF_ASC_NODE":273.8583,"ARG_OF_PERICENTER":294.3668,"MEAN_ANOMALY":124.1911,"EPHEMERIS_TYPE":0,"CLASSIFICATION_TYPE":"U","NORAD_CAT_ID":3133,"ELEMENT_SET_NO":999,"REV_AT_EPOCH":58023,"BSTAR":0.00022379052,"MEAN_MOTION_DOT":1.57e-6,"MEAN_MOTION_DDOT":0},{"OBJECT_NAME":"NNSS 19 (TRANSIT 19)","OBJECT_ID":"1970-067A","EPOCH":"2026-03-04T12:29:59.899488","MEAN_MOTION":13.51337025,"ECCENTRICITY":0.0173261,"INCLINATION":90.005,"RA_OF_ASC_NODE":234.5777,"ARG_OF_PERICENTER":56.408,"MEAN_ANOMALY":305.3475,"EPHEMERIS_TYPE":0,"CLASSIFICATION_TYPE":"U","NORAD_CAT_ID":4507,"ELEMENT_SET_NO":999,"REV_AT_EPOCH":73326,"BSTAR":0.000186,"MEAN_MOTION_DOT":1.43e-6,"MEAN_MOTION_DDOT":0},{"OBJECT_NAME":"NNSS 20 (TRANSIT 20)","OBJECT_ID":"1973-081A","EPOCH":"2026-03-04T18:22:17.865120","MEAN_MOTION":13.71472977,"ECCENTRICITY":0.0154207,"INCLINATION":89.8511,"RA_OF_ASC_NODE":253.8062,"ARG_OF_PERICENTER":191.5858,"MEAN_ANOMALY":168.1742,"EPHEMERIS_TYPE":0,"CLASSIFICATION_TYPE":"U","NORAD_CAT_ID":6909,"ELEMENT_SET_NO":999,"REV_AT_EPOCH":81485,"BSTAR":0.0002467,"MEAN_MOTION_DOT":2.52e-6,"MEAN_MOTION_DDOT":0},{"OBJECT_NAME":"TRANSAT","OBJECT_ID":"1977-106A","EPOCH":"2026-03-04T12:54:51.732864","MEAN_MOTION":13.48957192,"ECCENTRICITY":0.0024203,"INCLINATION":89.6396,"RA_OF_ASC_NODE":75.6619,"ARG_OF_PERICENTER":321.2376,"MEAN_ANOMALY":151.2837,"EPHEMERIS_TYPE":0,"CLASSIFICATION_TYPE":"U","NORAD_CAT_ID":10457,"ELEMENT_SET_NO":999,"REV_AT_EPOCH":37846,"BSTAR":0.00012456,"MEAN_MOTION_DOT":8.8e-7,"MEAN_MOTION_DDOT":0},{"OBJECT_NAME":"NOVA 1","OBJECT_ID":"1981-044A","EPOCH":"2026-03-04T19:06:09.498528","MEAN_MOTION":13.23286936,"ECCENTRICITY":0.0012695,"INCLINATION":89.8426,"RA_OF_ASC_NODE":90.1902,"ARG_OF_PERICENTER":233.4093,"MEAN_ANOMALY":300.0981,"EPHEMERIS_TYPE":0,"CLASSIFICATION_TYPE":"U","NORAD_CAT_ID":12458,"ELEMENT_SET_NO":999,"REV_AT_EPOCH":16271,"BSTAR":7.8e-5,"MEAN_MOTION_DOT":4.2e-7,"MEAN_MOTION_DDOT":0},{"OBJECT_NAME":"NOVA 3","OBJECT_ID":"1984-110A","EPOCH":"2026-03-04T20:05:46.682304","MEAN_MOTION":13.23056258,"ECCENTRICITY":0.0033423,"INCLINATION":90.1128,"RA_OF_ASC_NODE":81.4632,"ARG_OF_PERICENTER":102.5015,"MEAN_ANOMALY":72.1116,"EPHEMERIS_TYPE":0,"CLASSIFICATION_TYPE":"U","NORAD_CAT_ID":15362,"ELEMENT_SET_NO":999,"REV_AT_EPOCH":99784,"BSTAR":0.00017544,"MEAN_MOTION_DOT":8.3e-7,"MEAN_MOTION_DDOT":0},{"OBJECT_NAME":"OSCAR 30","OBJECT_ID":"1985-066A","EPOCH":"2026-03-04T12:50:10.368672","MEAN_MOTION":13.36094055,"ECCENTRICITY":0.0166817,"INCLINATION":90.1552,"RA_OF_ASC_NODE":101.154,"ARG_OF_PERICENTER":212.3552,"MEAN_ANOMALY":276.3102,"EPHEMERIS_TYPE":0,"CLASSIFICATION_TYPE":"U","NORAD_CAT_ID":15935,"ELEMENT_SET_NO":999,"REV_AT_EPOCH":97545,"BSTAR":0.00016504,"MEAN_MOTION_DOT":1.0e-6,"MEAN_MOTION_DDOT":0},{"OBJECT_NAME":"OSCAR 24","OBJECT_ID":"1985-066B","EPOCH":"2026-03-04T20:05:14.760096","MEAN_MOTION":13.35951904,"ECCENTRICITY":0.0167673,"INCLINATION":90.1689,"RA_OF_ASC_NODE":93.7225,"ARG_OF_PERICENTER":218.073,"MEAN_ANOMALY":316.2854,"EPHEMERIS_TYPE":0,"CLASSIFICATION_TYPE":"U","NORAD_CAT_ID":15936,"ELEMENT_SET_NO":999,"REV_AT_EPOCH":97739,"BSTAR":0.00017889,"MEAN_MOTION_DOT":1.07e-6,"MEAN_MOTION_DDOT":0},{"OBJECT_NAME":"POLAR BEAR","OBJECT_ID":"1986-088A","EPOCH":"2026-03-04T18:38:01.126752","MEAN_MOTION":13.75269131,"ECCENTRICITY":0.0037889,"INCLINATION":89.625,"RA_OF_ASC_NODE":180.5117,"ARG_OF_PERICENTER":231.0054,"MEAN_ANOMALY":283.6055,"EPHEMERIS_TYPE":0,"CLASSIFICATION_TYPE":"U","NORAD_CAT_ID":17070,"ELEMENT_SET_NO":999,"REV_AT_EPOCH":97106,"BSTAR":0.00013071,"MEAN_MOTION_DOT":1.37e-6,"MEAN_MOTION_DDOT":0},{"OBJECT_NAME":"OSCAR 27","OBJECT_ID":"1987-080A","EPOCH":"2026-03-04T18:07:23.836800","MEAN_MOTION":13.44923637,"ECCENTRICITY":0.0103419,"INCLINATION":90.3648,"RA_OF_ASC_NODE":82.3011,"ARG_OF_PERICENTER":350.824,"MEAN_ANOMALY":9.1015,"EPHEMERIS_TYPE":0,"CLASSIFICATION_TYPE":"U","NORAD_CAT_ID":18361,"ELEMENT_SET_NO":999,"REV_AT_EPOCH":88659,"BSTAR":0.00017343,"MEAN_MOTION_DOT":1.13e-6,"MEAN_MOTION_DDOT":0},{"OBJECT_NAME":"OSCAR 29","OBJECT_ID":"1987-080B","EPOCH":"2026-03-04T19:35:33.444384","MEAN_MOTION":13.44463843,"ECCENTRICITY":0.010581,"INCLINATION":90.3656,"RA_OF_ASC_NODE":82.7687,"ARG_OF_PERICENTER":13.8694,"MEAN_ANOMALY":159.0476,"EPHEMERIS_TYPE":0,"CLASSIFICATION_TYPE":"U","NORAD_CAT_ID":18362,"ELEMENT_SET_NO":999,"REV_AT_EPOCH":88612,"BSTAR":0.00016398,"MEAN_MOTION_DOT":1.07e-6,"MEAN_MOTION_DDOT":0},{"OBJECT_NAME":"OSCAR 23","OBJECT_ID":"1988-033A","EPOCH":"2026-03-04T19:24:14.074272","MEAN_MOTION":13.27802904,"ECCENTRICITY":0.0188132,"INCLINATION":90.3286,"RA_OF_ASC_NODE":18.9487,"ARG_OF_PERICENTER":312.6525,"MEAN_ANOMALY":81.5463,"EPHEMERIS_TYPE":0,"CLASSIFICATION_TYPE":"U","NORAD_CAT_ID":19070,"ELEMENT_SET_NO":999,"REV_AT_EPOCH":83342,"BSTAR":0.00021513,"MEAN_MOTION_DOT":1.13e-6,"MEAN_MOTION_DDOT":0},{"OBJECT_NAME":"OSCAR 32","OBJECT_ID":"1988-033B","EPOCH":"2026-03-04T09:57:52.891200","MEAN_MOTION":13.27967527,"ECCENTRICITY":0.0186255,"INCLINATION":90.329,"RA_OF_ASC_NODE":19.0726,"ARG_OF_PERICENTER":300.456,"MEAN_ANOMALY":173.8855,"EPHEMERIS_TYPE":0,"CLASSIFICATION_TYPE":"U","NORAD_CAT_ID":19071,"ELEMENT_SET_NO":999,"REV_AT_EPOCH":83349,"BSTAR":0.00015818009,"MEAN_MOTION_DOT":8.5e-7,"MEAN_MOTION_DDOT":0},{"OBJECT_NAME":"NOVA 2","OBJECT_ID":"1988-052A","EPOCH":"2026-03-04T18:30:57.943008","MEAN_MOTION":13.22947014,"ECCENTRICITY":0.0031487,"INCLINATION":89.9781,"RA_OF_ASC_NODE":78.1326,"ARG_OF_PERICENTER":144.6351,"MEAN_ANOMALY":29.1863,"EPHEMERIS_TYPE":0,"CLASSIFICATION_TYPE":"U","NORAD_CAT_ID":19223,"ELEMENT_SET_NO":999,"REV_AT_EPOCH":82032,"BSTAR":0.0001613,"MEAN_MOTION_DOT":7.7e-7,"MEAN_MOTION_DDOT":0},{"OBJECT_NAME":"OSCAR 25","OBJECT_ID":"1988-074A","EPOCH":"2026-03-04T10:28:37.644384","MEAN_MOTION":13.42640631,"ECCENTRICITY":0.00968247,"INCLINATION":90.0412,"RA_OF_ASC_NODE":20.5199,"ARG_OF_PERICENTER":14.4171,"MEAN_ANOMALY":104.3691,"EPHEMERIS_TYPE":0,"CLASSIFICATION_TYPE":"U","NORAD_CAT_ID":19419,"ELEMENT_SET_NO":999,"REV_AT_EPOCH":83736,"BSTAR":0.00022319599,"MEAN_MOTION_DOT":1.39e-6,"MEAN_MOTION_DDOT":0}]
